{
    "links": {
        "self": "http://www.neowsapp.com/rest/v1/neo/3518264?api_key=iIulBulltgU6a56xZRHN4H3l9WmuAYTsLGpBGhQ2"
    },
    "id": "3518264",
    "neo_reference_id": "3518264",
    "name": "(2010 HV20)",
    "designation": "2010 HV20",
    "nasa_jpl_url": "http://ssd.jpl.nasa.gov/sbdb.cgi?sstr=3518264",
    "absolute_magnitude_h": 21.9,
    "estimated_diameter": {
        "kilometers": {
            "estimated_diameter_min": 0.1108038821,
            "estimated_diameter_max": 0.2477650126
        },
        "meters": {
            "estimated_diameter_min": 110.8038821264,
            "estimated_diameter_max": 247.7650126055
        },
        "miles": {
            "estimated_diameter_min": 0.068850319,
            "estimated_diameter_max": 0.1539539936
        },
        "feet": {
            "estimated_diameter_min": 363.5298086356,
            "estimated_diameter_max": 812.8773639568
        }
    },
    "is_potentially_hazardous_asteroid": false,
    "close_approach_data": [
        {
            "close_approach_date": "2010-05-04",
            "close_approach_date_full": "2010-May-04 16:01",
            "epoch_date_close_approach": 1272988860000,
            "relative_velocity": {
                "kilometers_per_second": "24.6239156733",
                "kilometers_per_hour": "88646.0964237421",
                "miles_per_hour": "55081.2369695191"
            },
            "miss_distance": {
                "astronomical": "0.0938185795",
                "lunar": "36.4954274255",
                "kilometers": "14035059.659625665",
                "miles": "8720981.675197577"
            },
            "orbiting_body": "Earth"
        }
    ],
    "orbital_data": {
        "orbit_id": "11",
        "orbit_determination_date": "2017-04-06 08:57:42",
        "first_observation_date": "2010-04-25",
        "last_observation_date": "2010-05-02",
        "data_arc_in_days": 7,
        "observations_used": 76,
        "orbit_uncertainty": "9",
        "minimum_orbit_intersection": ".0896375",
        "jupiter_tisserand_invariant": "2.852",
        "epoch_osculation": "2455313.5",
        "eccentricity": ".7890969526835938",
        "semi_major_axis": "2.620219100116805",
        "inclination": "6.453941809519934",
        "ascending_node_longitude": "99.07597502239757",
        "orbital_period": "1549.190549619156",
        "perihelion_distance": ".5526121928512858",
        "perihelion_argument": "216.2400724567793",
        "aphelion_distance": "4.687826007382324",
        "perihelion_time": "2455365.360723402108",
        "mean_anomaly": "347.9486352215687",
        "mean_motion": ".2323794191027697",
        "equinox": "J2000",
        "orbit_class": {
            "orbit_class_type": "APO",
            "orbit_class_description": "Near-Earth asteroid orbits which cross the Earth’s orbit similar to that of 1862 Apollo",
            "orbit_class_range": "a (semi-major axis) > 1.0 AU; q (perihelion) < 1.017 AU"
        }
    },
    "is_sentry_object": false
}